     2.10           N: GPS NAV DATA                         RINEX VERSION / TYPE
teqc  2015Jun23     UNAVCO Archive Ops  20150829 00:14:15UTCPGM / RUN BY / DATE
    17                                                      LEAP SECONDS
Solaris x86 5.10|AMD64|cc SC5.8 -xarch=amd64|=+|=+          COMMENT
    9.3132D-09  2.2352D-08 -5.9605D-08 -1.1921D-07          ION ALPHA
    9.2160D+04  1.1469D+05 -1.3107D+05 -5.8982D+05          ION BETA
   -6.519258022308D-09-1.865174681370D-14    61440     1860 DELTA-UTC: A0,A1,T,W
                                                            END OF HEADER
 8 15  8 28 12  0  0.0-3.289896994829D-06-1.250555214938D-12 0.000000000000D+00
    8.800000000000D+01-5.878125000000D+01 5.001994067416D-09 2.163212535559D+00
   -3.177672624588D-06 1.349861966446D-03 1.426786184311D-06 5.153561086655D+03
    4.752000000000D+05-4.097819328308D-08 1.667779392449D+00-5.215406417847D-08
    9.599258336326D-01 3.478125000000D+02-1.816678328127D+00-8.602144028113D-09
   -3.535861568541D-10 1.000000000000D+00 1.859000000000D+03 0.000000000000D+00
    2.800000000000D+00 0.000000000000D+00 7.450580596924D-09 8.800000000000D+01
    4.680180000000D+05 4.000000000000D+00
 4 15  8 28 12  0  0.0-1.466553658247D-05-3.865352482535D-12 0.000000000000D+00
    3.900000000000D+01-8.828125000000D+01 4.649122226030D-09-1.708131873749D+00
   -4.654750227928D-06 1.177331816871D-02 1.159869134426D-05 5.153662288666D+03
    4.752000000000D+05 3.036111593246D-07 2.701440345171D+00 0.000000000000D+00
    9.408467837364D-01 1.440000000000D+02 1.091190792819D+00-7.963903157104D-09
   -2.575107263554D-10 1.000000000000D+00 1.859000000000D+03 0.000000000000D+00
    2.000000000000D+00 0.000000000000D+00-6.519258022308D-09 3.900000000000D+01
    4.680180000000D+05 4.000000000000D+00
16 15  8 28 12  0  0.0-9.260140359402D-05 4.092726157978D-12 0.000000000000D+00
    5.600000000000D+01 1.177500000000D+02 4.086598794672D-09 1.618237835541D+00
    6.351619958878D-06 8.092819247395D-03 6.841495633125D-06 5.153615251541D+03
    4.752000000000D+05-1.490116119385D-08 6.910549626759D-01 2.328306436539D-07
    9.906358941785D-01 2.634062500000D+02 3.239399994584D-01-8.062478691742D-09
    3.493002640438D-10 1.000000000000D+00 1.859000000000D+03 0.000000000000D+00
    2.000000000000D+00 0.000000000000D+00-1.024454832077D-08 5.600000000000D+01
    4.680180000000D+05 4.000000000000D+00
32 15  8 28 12  0  0.0-5.978019908071D-05 1.080024958355D-11 0.000000000000D+00
    1.600000000000D+01 5.756250000000D+01 4.876988860448D-09-1.692511191450D+00
    2.928078174591D-06 1.129542721901D-02 8.167698979378D-06 5.153697072983D+03
    4.752000000000D+05-9.872019290924D-08-2.436401773913D+00-1.136213541031D-07
    9.470311046068D-01 2.162187500000D+02 1.047595592676D-01-8.191769791521D-09
    7.796753337501D-10 1.000000000000D+00 1.859000000000D+03 0.000000000000D+00
    2.000000000000D+00 0.000000000000D+00-3.725290298462D-09 1.600000000000D+01
    4.680180000000D+05 4.000000000000D+00
26 15  8 28 12  0  0.0-3.768363967538D-05-9.549694368616D-12 0.000000000000D+00
    1.050000000000D+02 1.201562500000D+02 4.685195157184D-09 1.356320484855D+00
    6.351619958878D-06 2.124430611730D-04 6.977468729019D-06 5.153629137039D+03
    4.752000000000D+05-1.005828380585D-07 6.204672635577D-01 5.774199962616D-08
    9.606669991337D-01 2.445312500000D+02 1.071727460676D+00-8.262487022892D-09
    4.664480008601D-10 1.000000000000D+00 1.859000000000D+03 0.000000000000D+00
    2.000000000000D+00 0.000000000000D+00 7.450580596924D-09 1.050000000000D+02
    4.680180000000D+05 4.000000000000D+00
31 15  8 28 12  0  0.0 3.048619255424D-04-1.364242052659D-12 0.000000000000D+00
    6.500000000000D+01 9.156250000000D+00 4.035882396416D-09-2.184177646738D+00
    5.867332220078D-07 8.079885621555D-03 1.320615410805D-05 5.153584833145D+03
    4.752000000000D+05-1.974403858185D-07-3.893864061125D-01 6.519258022308D-08
    9.744093385059D-01 1.366562500000D+02-5.235822982643D-01-7.647461404607D-09
   -2.914407111040D-10 1.000000000000D+00 1.859000000000D+03 0.000000000000D+00
    2.000000000000D+00 0.000000000000D+00-1.350417733192D-08 6.500000000000D+01
    4.680180000000D+05 4.000000000000D+00
19 15  8 28 12  0  0.0-5.191066302359D-04-6.821210263297D-13 0.000000000000D+00
    1.180000000000D+02-7.259375000000D+01 4.820915096179D-09-4.358800068490D-01
   -3.762543201447D-06 1.135220739525D-02 2.441927790642D-06 5.155124837875D+03
    4.752000000000D+05 2.048909664154D-08 1.765988459525D+00 1.396983861923D-07
    9.701833207381D-01 3.337187500000D+02 6.442714905736D-01-8.627145069506D-09
   -4.193031799462D-10 1.000000000000D+00 1.859000000000D+03 0.000000000000D+00
    2.800000000000D+00 0.000000000000D+00-1.490116119385D-08 1.180000000000D+02
    4.680180000000D+05 4.000000000000D+00
 1 15  8 28 12  0  0.0-5.005858838558D-07 6.821210263297D-13 0.000000000000D+00
    9.000000000000D+01-9.353125000000D+01 4.103385208179D-09-1.494891436869D+00
   -4.867091774941D-06 4.624560824595D-03 1.206994056702D-05 5.153667974472D+03
    4.752000000000D+05 2.980232238770D-08 2.725859430804D+00-1.378357410431D-07
    9.631214596804D-01 1.498125000000D+02 4.556939448648D-01-7.776395346651D-09
   -2.271523189487D-10 1.000000000000D+00 1.859000000000D+03 0.000000000000D+00
    2.800000000000D+00 0.000000000000D+00 5.122274160385D-09 9.000000000000D+01
    4.687980000000D+05 4.000000000000D+00
19 15  8 28 11 59 44.0-5.191098898649D-04-6.821210263297D-13 0.000000000000D+00
    0.000000000000D+00-7.259375000000D+01 4.820915096179D-09-4.382115603333D-01
   -3.762543201447D-06 1.135220762808D-02 2.441927790642D-06 5.155124835968D+03
    4.751840000000D+05 2.048909664154D-08 1.765988599965D+00 1.396983861923D-07
    9.701833353673D-01 3.337187500000D+02 6.442712989314D-01-8.627145069506D-09
   -4.189460222120D-10 1.000000000000D+00 1.859000000000D+03 0.000000000000D+00
    2.000000000000D+00 0.000000000000D+00-1.490116119385D-08 0.000000000000D+00
    4.699860000000D+05 4.000000000000D+00
 9 15  8 28 12  0  0.0-1.092255115509D-05 4.547473508865D-13 0.000000000000D+00
    5.500000000000D+01-2.606250000000D+01 5.075211402926D-09-2.375632230047D-01
   -1.376494765282D-06 3.859102725983D-04 4.537403583527D-06 5.153735853195D+03
    4.752000000000D+05-5.587935447693D-09-1.474577059448D+00 2.048909664154D-08
    9.563026522211D-01 2.856250000000D+02 2.787680771808D+00-8.443923151864D-09
   -1.878649681871D-10 1.000000000000D+00 1.859000000000D+03 0.000000000000D+00
    2.000000000000D+00 0.000000000000D+00 9.313225746155D-10 5.500000000000D+01
    4.705020000000D+05 4.000000000000D+00
28 15  8 28 12  0  0.0 4.636384546757D-04 2.614797267597D-12 0.000000000000D+00
    4.300000000000D+01 1.284375000000D+02 4.173745281815D-09 1.469632231030D+00
    6.321817636490D-06 1.960960973520D-02 6.768852472305D-06 5.153698526382D+03
    4.752000000000D+05-1.415610313416D-07 6.963068151738D-01-5.140900611877D-07
    9.892691073720D-01 2.650312500000D+02-1.658256865146D+00-8.110694985859D-09
    5.253790270024D-10 1.000000000000D+00 1.859000000000D+03 0.000000000000D+00
    2.000000000000D+00 0.000000000000D+00-1.117587089539D-08 4.300000000000D+01
    4.749060000000D+05 4.000000000000D+00
27 15  8 28 14  0  0.0 1.532770693302D-05 2.955857780762D-12 0.000000000000D+00
    1.600000000000D+01-4.584375000000D+01 4.961278085718D-09 1.649192424307D+00
   -2.276152372360D-06 2.622547326609D-03 1.205131411552D-06 5.153696363449D+03
    4.824000000000D+05 5.774199962616D-08 1.668226230536D+00 1.080334186554D-07
    9.680000325382D-01 3.598437500000D+02 3.241233060196D-01-8.624287807633D-09
   -2.000083311498D-10 1.000000000000D+00 1.859000000000D+03 0.000000000000D+00
    2.000000000000D+00 0.000000000000D+00 1.396983861923D-09 1.600000000000D+01
    4.752180000000D+05 4.000000000000D+00
11 15  8 28 14  0  0.0-6.006890907884D-04-2.273736754432D-12 0.000000000000D+00
    8.800000000000D+01-1.180312500000D+02 6.173828593314D-09-1.033278951164D+00
   -6.042420864105D-06 1.619507221039D-02 7.497146725655D-06 5.153628660202D+03
    4.824000000000D+05-2.682209014893D-07 2.368445750312D+00 2.924352884293D-07
    8.940884665106D-01 1.983437500000D+02 1.444929965419D+00-9.171096298687D-09
   -4.714482091388D-10 1.000000000000D+00 1.859000000000D+03 0.000000000000D+00
    2.800000000000D+00 0.000000000000D+00-1.210719347000D-08 8.800000000000D+01
    4.752180000000D+05 4.000000000000D+00
23 15  8 28 14  0  0.0-1.298785209656D-04-2.273736754432D-12 0.000000000000D+00
    9.000000000000D+00-2.434375000000D+01 5.262004897911D-09 5.442278657094D-01
   -1.162290573120D-06 1.047973195091D-02 4.323199391365D-06 5.153562679291D+03
    4.824000000000D+05-2.235174179077D-08-1.466887290544D+00 2.160668373108D-07
    9.473049497050D-01 2.891562500000D+02-2.635798441459D+00-8.648931691292D-09
   -2.425101015191D-10 1.000000000000D+00 1.859000000000D+03 0.000000000000D+00
    2.000000000000D+00 0.000000000000D+00-2.002343535423D-08 9.000000000000D+00
    4.752180000000D+05 4.000000000000D+00
 3 15  8 28 14  0  0.0 1.894403249025D-05 1.932676241267D-12 0.000000000000D+00
    4.500000000000D+01 5.325000000000D+01 4.509116394226D-09 1.498320885502D+00
    2.838671207428D-06 6.637970218435D-04 9.620562195778D-06 5.153615983963D+03
    4.824000000000D+05-5.587935447693D-08-2.517110911681D+00-5.774199962616D-08
    9.594755620770D-01 1.961562500000D+02-2.565744536279D+00-8.032477442070D-09
    5.168072413817D-10 1.000000000000D+00 1.859000000000D+03 0.000000000000D+00
    2.000000000000D+00 0.000000000000D+00 1.862645149231D-09 4.500000000000D+01
    4.752180000000D+05 4.000000000000D+00
